{"type":"FeatureCollection","features":[{"type":"Feature","properties":{},"geometry":{"type":"MultiPolygon","coordinates":[[[[-161.12760128481472,-79.63420867301133],[-163.7128956777287,-78.59566660579729],[-159.20818356019765,-79.49705942170868],[-161.12760128481472,-79.63420867301133]]],[[[-120.23221716370998,-74.08880991632614],[-122.6217353928862,-73.65777679457962],[-118.72414303269196,-73.48135345473517],[-120.23221716370998,-74.08880991632614]]],[[[-127.28313045312619,-73.46176808689654],[-126.55847184309725,-73.24622568780714],[-124.03188187726683,-73.87326751723673],[-125.91218054263894,-73.7361182659341],[-127.28313045312619,-73.46176808689654]]],[[[-96.20034990109144,-72.52120534275215],[-100.78345516640925,-72.50161997491354],[-102.33072506387639,-71.89416351332257],[-96.20034990109144,-72.52120534275215]]],[[[-180.0,-16.067132663642447],[-179.9173693847653,-16.501783135649397],[-180.0,-16.555216566639196],[-180.0,-16.067132663642447]]],[[[-78.18209570993864,8.319182440621773],[-79.55787736684519,8.932374986197146],[-80.8864009264208,7.220541490096537],[-85.66078650586698,9.933347479690724],[-87.48940873894713,13.297534898323931],[-103.50098954955808,18.29229462327885],[-105.49303849976144,19.946767279535436],[-106.02871639689897,22.773752346278627],[-112.2282346260904,28.95440867768349],[-113.14866939985717,31.170965887978923],[-114.77645117883503,31.79953217216115],[-114.67389929895177,30.162681179315996],[-109.43339230023292,23.1855876734287],[-112.18203589562148,24.738412787367167],[-112.3007108223797,26.012004299416617],[-115.05514217818501,27.72272675222291],[-114.16201839888464,28.566111965442303],[-117.29593769127393,33.04622461520387],[-120.62286,34.60854999999998],[-124.39807000000002,40.313199999999995],[-124.68721008300781,48.18443298339855],[-122.58735999999993,47.09600000000006],[-122.84000000000003,49.000000000000114],[-125.62461,50.416560000000004],[-127.43561000000001,50.83061],[-127.85032,52.32961],[-134.07806292029608,58.12306753196691],[-147.11437394914665,60.884656073644635],[-151.7163927886833,59.15582103131993],[-150.62111080625704,61.2844249538544],[-158.43332129619714,55.99415355083852],[-164.78556922102717,54.40417308208214],[-157.72277035218391,57.57000051536306],[-157.04167497457698,58.91888458926172],[-161.96889360252632,58.67166453717738],[-162.51805904849212,59.98972361921386],[-165.3463877024748,60.50749563256238],[-165.73445187077058,62.074996853271784],[-160.7725066803211,63.766108100023246],[-161.51806840721218,64.40278758407527],[-160.77777767641481,64.78860382756642],[-164.96082984114514,64.44694509546883],[-168.11056006576715,65.66999705673675],[-161.67777442121013,66.11611969671242],[-166.76444068099605,68.35887685817966],[-156.58082455139808,71.35776357694175],[-136.50358,68.89804],[-128.13817,70.48384],[-108.8802,67.38144],[-107.79239,67.88736],[-108.81299,68.31164],[-108.16721000000001,68.65392],[-101.45433,67.64689],[-97.66948000000001,68.57864000000001],[-96.11991,68.23939],[-96.12588,67.29338],[-94.23282000000002,69.06903000000001],[-96.47131,70.08976],[-96.39115,71.19482],[-93.88997,71.76015],[-91.51964000000001,70.19129000000001],[-92.40692000000001,69.69997000000001],[-90.5471,69.49766],[-90.55151000000001,68.47499],[-89.21515,69.25873],[-87.35017,67.19872],[-85.52197,69.88211],[-81.22019999999999,68.66567],[-81.38653000000001,67.11078],[-85.76943,66.55833],[-94.24153,60.89865],[-94.6846,58.94882],[-93.21502000000001,58.78212],[-92.29702999999999,57.08709],[-82.27285,55.14832],[-82.12502,53.27703],[-79.91289,51.208420000000004],[-78.60191,52.56208],[-79.82958,54.66772],[-76.54137,56.53423000000001],[-78.51688,58.80458],[-77.33676,59.852610000000006],[-78.10687,62.31964000000001],[-73.83988000000001,62.4438],[-69.59042,61.06141],[-69.28790000000001,58.95736],[-67.64976,58.21206],[-64.58352000000001,60.33558],[-61.798660000000005,56.33945],[-55.75632,53.27036],[-55.68338,52.146640000000005],[-60.03309000000001,50.24277],[-66.39905,50.228970000000004],[-71.10458,46.82171],[-65.05626,49.232780000000005],[-64.17099,48.74248],[-65.11545000000001,48.07085],[-64.47219,46.238490000000006],[-63.17329000000001,45.73902],[-61.520720000000004,45.883770000000005],[-60.518150000000006,47.00793],[-59.80287,45.9204],[-65.36406000000001,43.54523],[-66.16173,44.46512],[-64.42549,45.29204],[-67.13741,45.13753],[-70.64547563341102,43.09023834896402],[-69.96502999999996,41.63717000000014],[-73.71000000000004,40.93110235165449],[-71.94499999999988,40.930000000000064],[-73.95232499999997,40.75075000000004],[-74.90603999999996,38.93954000000002],[-75.52805000000001,39.49850000000009],[-75.05672999999996,38.40412000000009],[-75.94022999999999,37.21689000000009],[-76.35000000000002,39.14999999999998],[-76.98999793161352,38.23999176691336],[-75.72748999999999,35.55074000000013],[-81.33629000000002,31.44049000000001],[-80.38103000000001,25.20616000000001],[-81.70999999999987,25.870000000000005],[-83.70958999999999,29.936560000000043],[-86.39999999999992,30.40000000000009],[-89.5938311784198,30.159994004836847],[-89.40822999999995,29.159610000000043],[-93.84841999999998,29.71363000000008],[-97.36999999999995,27.380000000000052],[-97.87236670611111,22.44421173755336],[-95.90088497595997,18.82802419684873],[-91.40790340855926,18.87608327888023],[-90.2786183336849,20.999855454995554],[-87.05189022494807,21.5435431991383],[-88.93061275913527,15.887273464415076],[-83.41038123242038,15.270902818253774],[-83.80893571647155,11.103043524617275],[-82.20758643261097,8.9955752628901],[-79.57330278188431,9.611610012241528],[-76.83667395700357,8.638749497914716],[-74.90689510771199,11.083044745320322],[-71.75409013536864,12.437303168177309],[-71.69564409044654,9.072263088411248],[-69.94324459499683,12.162307033736099],[-68.19412655299763,10.554653225135922],[-61.880946010980196,10.715625311725104],[-62.388511928950976,9.94820445397464],[-57.14743648947689,5.973149929219161],[-53.9580446030709,5.756548163267765],[-51.31714636901086,4.203490505383954],[-49.97407589374506,1.736483465986069],[-50.699251268096916,0.22298411702168153],[-48.62056677915632,-0.2354891902718208],[-48.58449662941659,-1.2378052710050014],[-47.824956427590635,-0.5816179337628],[-44.905703090990414,-1.551739597178134],[-44.58158850765578,-2.691308282078524],[-39.97866533055404,-2.873054294449041],[-35.23538896334756,-5.464937432480247],[-35.12821204277422,-8.996401462442286],[-38.67388709161652,-13.057652276260619],[-40.94475623225061,-21.93731698983781],[-47.64897233742066,-24.885199069927722],[-48.8884574041574,-28.674115085567884],[-53.806425950726535,-34.39681487400223],[-56.21529700379607,-34.85983570733742],[-58.42707414410439,-33.909454441057576],[-56.78828528504836,-36.901571547189334],[-59.23185706240189,-38.720220228837235],[-62.33595699731013,-38.827707208004334],[-62.745802781816984,-41.0287614886121],[-65.11803524439158,-41.06431487402891],[-63.458059048095876,-42.563138116222405],[-67.29379391139247,-45.55189625425519],[-67.58054643418008,-46.30177296324257],[-65.64102657740149,-47.23613453551193],[-65.98508826360079,-48.133289076531135],[-69.13853919134777,-50.732510267947795],[-68.14999487982038,-52.34998340612768],[-69.46128434922667,-52.29195077266391],[-70.8451016913546,-52.89920052852571],[-71.00633216010525,-53.83325204220132],[-74.94676347522517,-52.262753588419],[-75.60801510283198,-48.67377288187184],[-74.1265809801047,-46.93925343199511],[-75.64439531116545,-46.64764332457207],[-74.35170935738425,-44.10304412208794],[-73.24035600451522,-44.454960625995604],[-72.7178039211798,-42.38335580827898],[-74.33194312203261,-43.22495818458442],[-73.58806087919109,-37.15628468195598],[-71.4384504869299,-32.41889942803078],[-70.16441972520605,-19.756468194256165],[-71.46204077827113,-17.363487644116383],[-76.00920508492995,-14.649286390850321],[-79.76057817251005,-7.194340915560084],[-81.24999630402642,-6.136834405139183],[-79.77029334178093,-2.65751189535964],[-80.96776546906436,-2.246942640800704],[-80.93365902375172,-1.057454522306358],[-77.12768978545526,3.8496361352653565],[-78.18209570993864,8.319182440621773]]],[[[-155.68817,18.91619],[-155.86108000000002,20.267210000000002],[-154.80741,19.50871],[-155.68817,18.91619]]],[[[-156.61258,21.01249],[-156.41445,20.57241],[-156.71054999999998,20.92676],[-156.61258,21.01249]]],[[[-157.25027,21.219579999999997],[-156.78933,21.068730000000002],[-157.32521,21.097770000000004],[-157.25027,21.219579999999997]]],[[[-158.12667000000002,21.31244],[-157.65283000000002,21.322170000000003],[-157.70703,21.26442],[-158.12667000000002,21.31244]]],[[[-159.46372,21.88299],[-159.36569,22.21494],[-159.34512,21.982000000000003],[-159.46372,21.88299]]],[[[-128.35841365625546,50.77064809834371],[-125.7550066738232,50.29501821552935],[-123.51000158755119,48.51001089130341],[-125.65501277733838,48.8250045843385],[-128.35841365625546,50.77064809834371]]],[[[-133.2396644827927,53.851080227262344],[-131.74998958400334,54.12000438090922],[-131.1790425218266,52.180432847698285],[-132.18042842677852,52.639707139692405],[-133.2396644827927,53.851080227262344]]],[[[-154.67099280497118,57.46119578717253],[-152.1411472239064,57.591058661522],[-154.51640275777004,56.99274892844669],[-154.67099280497118,57.46119578717253]]],[[[-165.67442969466364,60.29360687930625],[-166.19277014876727,59.75444082298899],[-167.45527706609008,60.21306915957936],[-165.67442969466364,60.29360687930625]]],[[[-80.36215,62.016490000000005],[-79.26582,62.158674999999995],[-79.65752,61.63308],[-80.36215,62.016490000000005]]],[[[-81.89825,62.7108],[-83.06857000000001,62.159220000000005],[-83.99367000000001,62.452799999999996],[-83.25048,62.91409],[-81.89825,62.7108]]],[[[-169.5294398672051,62.97693146427792],[-171.73165686753944,63.782515367275934],[-168.6894394603007,63.297506212000556],[-169.5294398672051,62.97693146427792]]],[[[-83.10879757356511,64.10187571883971],[-85.52340471061905,63.052379055424055],[-87.22198320183678,63.54123810490519],[-85.88384782585486,65.7387783881171],[-80.10345130076664,63.72598135034862],[-83.10879757356511,64.10187571883971]]],[[[-172.555,64.46079],[-178.68610999999999,66.11211],[-180.0,64.9797087021984],[-180.0,68.96363636363635],[-174.33983000000003,66.33556],[-174.57182,67.06219],[-171.85731,66.91308000000001],[-169.89958000000001,65.97724],[-172.53025000000002,65.43791],[-172.555,64.46079]]],[[[-98.21826120380055,70.14354035832177],[-95.64768120380054,69.10769035832178],[-99.79740120380055,69.40003035832177],[-98.21826120380055,70.14354035832177]]],[[[-102.09329000000002,69.11962000000011],[-113.31320000000005,68.53553999999997],[-117.34000000000003,69.9600000000001],[-112.41610000000003,70.36637999999999],[-117.90480000000002,70.54056000000014],[-116.11311,71.30917999999997],[-119.40199000000001,71.55858999999998],[-115.18909000000002,73.31459000000012],[-109.92034999999993,72.96113000000008],[-108.18834999999996,71.65089],[-108.39639,73.08953000000008],[-107.51645000000002,73.23597999999998],[-100.98077999999992,70.02431999999999],[-102.73115999999993,69.50402000000003],[-102.09329000000002,69.11962000000011]]],[[[-178.69378000000003,70.89302],[-179.871875,71.55762000000001],[-177.57794500000003,71.26948],[-178.69378000000003,70.89302]]],[[[-96.72000000000001,71.66],[-99.32286,71.35639],[-102.48000000000002,72.83000000000001],[-97.38,73.76],[-98.05359,72.99052],[-96.54,72.56],[-96.72000000000001,71.66]]],[[[-123.09218999999996,70.90164000000004],[-125.92894873747338,71.86868846301138],[-123.93999999999994,73.68000000000012],[-124.91774999999996,74.29275000000013],[-115.51080999999999,73.47519],[-123.09218999999996,70.90164000000004]]],[[[-96.03374508338244,72.94027680123183],[-94.50365759965237,74.13490672473922],[-90.50979285354263,73.85673248971206],[-94.26904659704726,72.02459625923599],[-96.03374508338244,72.94027680123183]]],[[[-105.38000000000001,72.76],[-106.94,73.46000000000001],[-104.5,73.42],[-105.38000000000001,72.76]]],[[[-94.15690873897391,74.59234650338688],[-95.60868058956564,74.66686391875176],[-96.82093217648455,74.92762319609658],[-94.85081987178917,75.64721751576089],[-94.15690873897391,74.59234650338688]]],[[[-113.87135,74.72029],[-111.79420999999999,75.16250000000001],[-117.7104,75.2222],[-115.40487,76.47887],[-109.06710000000001,75.47321000000001],[-110.49726000000001,76.42982],[-109.58109999999999,76.79417],[-105.70498,75.47951],[-113.87135,74.72029]]],[[[-96.74512285031237,77.16138865834507],[-89.18708289259985,75.61016551380762],[-81.12853084992436,75.71398346628199],[-79.83393286814837,74.92312734648716],[-92.42244096552946,74.83775788034099],[-96.74512285031237,77.16138865834507]]],[[[-102.56552,76.3366],[-98.50000000000001,76.72],[-97.70441500000001,75.74344],[-99.80874,74.89744],[-102.56552,76.3366]]],[[[-116.19858659550738,77.6452867703262],[-121.49999507712648,75.90001862253276],[-122.85492529360326,76.11654287383568],[-116.19858659550738,77.6452867703262]]],[[[-94.29560828324529,77.49134267852868],[-96.43630449093614,77.83462921824362],[-93.7206562975659,77.63433136668031],[-94.29560828324529,77.49134267852868]]],[[[-110.18693803591302,77.69701487905034],[-113.53427893761912,77.73220652944111],[-109.85445187054711,77.99632477488488],[-110.18693803591302,77.69701487905034]]],[[[-95.5592779202946,78.41831452098033],[-97.30984290239799,77.85059723582181],[-98.63198442258553,78.87193024363837],[-96.75439876990876,78.76581268992702],[-95.5592779202946,78.41831452098033]]],[[[-104.21042945027713,78.67742015249176],[-105.4922891914932,79.30159393992916],[-99.67093909381364,77.90754466420744],[-105.17613277873151,78.3803323432458],[-104.21042945027713,78.67742015249176]]],[[[-110.88131425661892,78.40691986765997],[-112.54209143761516,78.4079017198735],[-109.6631457182026,78.60197256134565],[-110.88131425661892,78.40691986765997]]],[[[-92.40983999999999,81.25739000000003],[-85.81435,79.3369],[-90.80436,78.21533000000001],[-96.70972,80.15777],[-92.40983999999999,81.25739000000003]]],[[[-60.15965572777019,-81.00032683707929],[-64.48812537296979,-80.92193368929253],[-66.29003089055513,-80.25577280061798],[-59.572094692611586,-80.04017872509628],[-60.15965572777019,-81.00032683707929]]],[[[-43.33326677099714,-80.0261227355129],[-50.48210689960646,-81.02544158317313],[-54.16425940613162,-80.63352752067158],[-46.66285681821098,-77.83147552506506],[-43.92082780615574,-78.47810272233328],[-43.33326677099714,-80.0261227355129]]],[[[-70.25325151231577,-68.87874033622717],[-68.45134599473043,-70.95582285576673],[-68.78429724798698,-72.17073577894867],[-74.95389482288145,-72.07275726332328],[-72.07471655952358,-71.19095062269476],[-71.74179114448319,-69.50578216565675],[-70.25325151231577,-68.87874033622717]]],[[[-68.63999081081187,-55.58001799908692],[-74.66253,-52.837489999999946],[-71.10773,-54.07432999999992],[-69.34564999999992,-52.518299999999954],[-65.05,-54.699999999999996],[-68.63999081081187,-55.58001799908692]]],[[[-61.2,-51.85],[-58.550000000000004,-51.10000000000001],[-57.75,-51.55],[-59.400000000000006,-52.199999999999996],[-61.2,-51.85]]],[[[-9.004793667018674,4.8324185245922],[-16.61383826340328,12.170911159712702],[-17.62504269049066,14.729540513564073],[-16.14634741867485,18.108481553616656],[-17.06342322434257,20.999752102130827],[-14.439939947964831,26.254418443297652],[-9.564811163765683,29.93357371674989],[-9.300692918321886,32.564679266890664],[-5.92999426921989,35.75998810479399],[-2.169913702798624,35.16839630791668],[1.466918572606545,36.605647081034405],[9.509993523810607,37.349994411766545],[11.100025668999251,36.899996039368915],[10.339658644256616,33.78574168551532],[19.08641,30.26639],[21.54298,32.843200000000024],[28.913529999999998,30.87005],[33.7734,30.967460000000003],[36.160821567537,36.65060557712833],[27.641186557737317,36.65882212986274],[26.17078535330433,39.463612168936464],[33.51328291192746,42.01896006933731],[38.34766482926452,40.94858612727573],[41.55408410011066,41.53565623632757],[41.45347008643839,42.64512339941794],[36.6754600000001,45.244690000000105],[39.121200000000044,47.26336000000009],[34.96234174982385,46.27319651954974],[36.334712762199274,45.11321564389402],[33.882511020652885,44.361478583344194],[32.4541744321055,45.327466132176085],[33.29856733575474,46.08059845639781],[30.74874881360921,46.583100084004116],[27.67389773937805,42.57789236100622],[28.806438429486743,41.05496206314856],[22.626298862404724,40.25656118423916],[24.040011020613576,37.655014553369426],[23.115002882589124,37.920011298162194],[22.490028110451078,36.4100001083774],[19.406081984136733,40.250773423822466],[19.540027296637106,41.71998607031276],[13.141606479554296,45.73669179949542],[12.589237094786455,44.09136587175446],[18.48024702319543,40.16886627863981],[16.869595981522338,40.44223460546381],[16.100960727613,37.9858987493342],[15.413612501698793,40.048356838535156],[8.88894616052687,44.36633616797951],[3.1004105973526634,43.075200507167054],[3.0394840836805486,41.892120266276905],[0.8105245296351882,41.01473196060934],[0.11129072429383768,38.73851430923304],[-2.146452602538119,36.67414419203729],[-5.3771597965614575,35.946850083961465],[-8.898856980820327,36.86880931248078],[-9.392883673530648,43.0266246608127],[-1.384225226232985,44.022610378590116],[-1.1937975732374184,46.01491771095486],[-4.592349819344776,48.68416046812699],[-1.6165107893849608,48.64442129169454],[-1.933494025063311,49.776341864615745],[1.3387610205226963,50.12717316344526],[4.705997348661185,53.091798407597764],[8.121706170289485,53.52779246684429],[8.543437534223415,57.11000275331695],[10.580005730846125,57.73001658795485],[10.912181837618306,56.458621324277885],[9.649984978889279,55.469999498102055],[10.93946699386845,54.00869334575259],[19.660640089606403,54.42608388937393],[21.268448927503467,55.190481675835315],[21.581866489353672,57.411870632549935],[24.12072960785343,57.02569265403277],[24.42892785004216,58.38341339785329],[23.339795363058645,59.187240302153384],[29.117700000000013,60.02805000000012],[22.869694858499457,59.846373196036225],[21.322244093519316,60.720169989659524],[21.536029493910803,63.18973501245587],[25.398067661243942,65.11142650009374],[23.903378533633802,66.00692739527962],[17.84777916837521,62.74940013289681],[17.119554884518124,61.34116567651097],[18.78772179533209,60.081914374422595],[16.829185011470088,58.71982697207339],[15.879785597403783,56.10430186626866],[12.942910597392057,55.36173737245058],[10.356556837616067,59.469807033925356],[8.382000359743586,58.313288479233215],[5.665835402050419,58.5881554225937],[4.992078077828978,61.97099803328432],[19.18402835457846,69.81744415961778],[28.165547316202943,71.18547435168055],[31.293418409965454,70.4537877468599],[30.005435011522792,70.18625885688489],[31.101042202597625,69.55810108805622],[41.059870000000046,67.45713000000012],[38.382949999999994,65.9995300000001],[33.18444000000005,66.63252999999997],[34.814770000000124,65.90015000000017],[34.94391000000007,64.41437000000019],[37.01273000000009,63.84983000000011],[37.17604000000006,65.14322000000016],[39.59345000000002,64.5207900000002],[42.09309000000013,66.47623000000004],[43.94975000000011,66.06908000000004],[44.53226000000001,66.75634000000014],[43.45282000000003,68.57078999999999],[46.250000000000114,68.25],[46.82134000000008,67.68997000000007],[45.56202000000013,67.01005000000015],[46.34915000000012,66.6676700000001],[53.71743000000015,68.85738000000015],[59.94142000000011,68.27844000000005],[61.07784000000021,68.94069000000007],[60.55000000000001,69.85000000000002],[68.51216000000016,68.09233000000012],[69.18068000000011,68.61563000000012],[66.93008000000015,69.45461000000012],[66.69466000000006,71.02897000000019],[69.94,73.04000000000008],[72.79603000000003,72.22005999999999],[71.84811000000008,71.4089800000001],[73.66787,68.40789999999998],[71.28000000000009,66.3200000000001],[72.42301000000009,66.17267000000021],[75.05200000000008,67.76047000000011],[73.60187000000019,69.62763000000001],[74.39980000000003,70.63175000000001],[73.10109999999997,71.4471700000002],[74.65926000000007,72.83227000000005],[76.35911000000004,71.15287000000018],[75.90313000000015,71.87401000000006],[77.57665000000009,72.26717000000002],[81.50000000000006,71.75000000000006],[80.51109000000002,73.64819999999997],[86.82230000000015,73.93688000000003],[86.00956000000002,74.45967000000019],[87.16682000000014,75.11643000000004],[100.75967000000014,76.43028000000004],[104.35160000000013,77.69792000000007],[114.13417000000004,75.84764000000001],[109.40000000000003,74.18000000000006],[123.20066000000008,72.97122000000007],[123.25777000000016,73.73503000000005],[126.97644000000003,73.56549000000012],[131.28858000000025,70.78699000000012],[132.25350000000014,71.83630000000011],[139.8698300000001,71.48783000000014],[139.14791000000002,72.41619000000014],[140.46817,72.84941000000015],[158.99779,70.86671999999999],[160.9405300000003,69.4372800000001],[167.83566999999994,69.58269000000013],[169.5776300000001,68.69380000000007],[170.8168800000002,69.01362999999998],[170.4534500000002,70.09703000000007],[180.0,68.96363636363651],[180.0,64.97970870219848],[177.41128000000003,64.60821000000004],[179.22825,62.304100000000176],[173.68013000000008,61.652610000000095],[170.33085000000028,59.881770000000074],[163.53929000000005,59.86871000000002],[162.01733000000002,58.24328000000003],[163.19191,57.615030000000104],[162.1174900000001,54.855140000000006],[156.78979000000027,51.01105000000007],[155.9144200000003,56.767920000000174],[163.66968999999995,61.1409000000001],[164.47355000000005,62.550610000000006],[160.12148000000002,60.544230000000084],[159.30232,61.7739600000001],[156.72068000000002,61.434420000000046],[154.21806000000026,59.75818000000015],[155.04375000000005,59.14495000000005],[142.1978200000001,59.03998000000013],[135.12618999999995,54.72959000000009],[139.90151000000003,54.18968000000012],[141.37923,52.238770000000045],[138.21970999999996,46.307950000000005],[134.86939000000018,43.39821000000006],[132.27807000000018,43.28456000000011],[127.53343550019417,39.7568500839767],[129.46044966035817,36.78418915460283],[129.0913765809296,35.082484239231434],[126.48574751190876,34.39004588473648],[126.11739790253229,36.72548472751926],[126.86014326386339,36.893924058574626],[124.71216067921938,38.10834605564979],[125.32111575734682,39.55138458918421],[121.05455447803286,38.897471014962846],[121.64035851449353,40.94638987890333],[118.04274865119791,39.2042739934797],[118.91163618375344,37.44846385349871],[122.35793745329849,37.45448415786072],[119.1512081238586,34.90985911716044],[121.90814578663003,31.692174384074647],[121.68443851123851,28.225512600206617],[115.89073530483512,22.78287323657807],[110.78546552942407,21.397143866455338],[110.44403934127168,20.34103261970633],[108.5228129415244,21.715212307211814],[105.88168216351903,19.752050482659698],[109.33526981001722,13.426028347217724],[109.20013593957398,11.666859239137764],[105.15826378786511,8.599759629750494],[105.07620161338562,9.918490505406808],[100.09779747925111,13.406856390837433],[99.22239871622676,9.239255479362427],[102.96170535686673,5.524495144061106],[104.22881147666348,1.2930480004894918],[101.39063846232919,2.760813706875581],[100.0857568705271,6.4644894474502905],[98.339661899817,7.794511623562386],[98.76454552612078,11.441291612183749],[97.1645398294998,16.92873444260934],[94.18880415240454,16.037936102762018],[94.32481652219676,18.2135139022499],[91.41708702999766,22.76501902922122],[86.97570438024027,21.49556163175521],[86.49935102737379,20.151638495356607],[80.32489586784388,15.89918488205835],[79.85799930208682,10.35727509199711],[77.53989790233794,7.965534776232332],[73.5341992532334,15.99065216721496],[72.6305334817454,21.356009426351008],[70.4704586119451,20.877330634031384],[66.37282758979327,25.42514089609385],[57.39725141788239,25.73990204518364],[56.492138706290206,27.143304755150197],[54.71508955263727,26.480657863871514],[51.52076256694742,27.865689602158298],[50.115008579311585,30.147772528599717],[47.974519077349896,29.975819200148504],[50.81010827006958,24.754742539971378],[51.58907881043726,25.80111277923338],[51.79438927593287,24.019826158132506],[54.00800092958758,24.121757920828216],[56.36201744977927,26.39593435312898],[56.845140415276006,24.241673081961505],[59.806148309168066,22.310524807214193],[55.27490034365513,17.22835439703762],[43.48295861183713,12.636800035040084],[42.649572788266084,16.774635321514964],[34.63233605320798,28.058546047471566],[34.95603722508426,29.356554673778845],[34.92260257339143,29.501326198844524],[34.823243288783814,29.76108076171822],[33.92136,27.6487],[32.423230000000004,29.851080000000003],[36.86622999999997,22.0],[37.4817900000001,18.61409000000009],[43.31785241066467,12.390148423711025],[42.715873650896526,11.735640570518342],[44.614259067570856,10.442205308468942],[51.1112,12.024640000000002],[51.04531,10.6409],[47.740790000000004,4.2194],[39.20222,-4.67677],[39.18652000000009,-8.48550999999992],[40.47838748552303,-10.765440769089993],[40.08926395036522,-16.10077402106446],[34.78638349787005,-19.784011732667736],[35.45874555841962,-24.12260995859655],[32.574632195777866,-25.727318210556092],[32.46213260267845,-28.301011244420557],[30.05571618014278,-31.140269463832958],[25.780628289500697,-33.94464609144834],[19.61640506356457,-34.81916635512371],[18.377410922934615,-34.13652068454807],[18.22176150887148,-31.66163298922567],[15.21047244635946,-27.090955905874047],[14.257714064194175,-22.111208184499958],[11.64009606288161,-16.67314218512925],[13.6337211442698,-12.03864470789717],[13.236432732809874,-8.562629489784307],[8.79799563969317,-1.111301364754496],[9.795195753629457,3.073404445809117],[8.500287713259695,4.7719829370268485],[5.898172641634687,4.262453314628985],[4.325607130560684,6.2706511499234665],[-1.9647065901675944,4.710462144383371],[-9.004793667018674,4.8324185245922]],[[50.39282107931268,40.25656118423912],[48.85653242370759,38.81548635513178],[49.19961225769334,37.582874253889884],[53.82578982932642,36.965030829408235],[53.880928582581845,38.95209300389536],[52.69397260926982,40.03362905533197],[54.73684533063215,40.95101491959346],[53.72171349469059,42.12319143327003],[52.81468875510362,41.13537059179471],[52.50142622255032,42.7922978785852],[50.30564293803627,44.609835516938915],[53.0408764992452,45.25904653582177],[53.042736850807785,46.85300608986449],[49.10116000000011,46.399330000000134],[46.68201000000005,44.6092000000001],[50.39282107931268,40.25656118423912]]],[[[-61.68000000000001,10.760000000000002],[-60.935,10.11],[-61.95,10.09],[-61.68000000000001,10.760000000000002]]],[[[-78.21772661000388,18.454532782459196],[-76.89661861846213,18.400866807524082],[-76.19965857614164,17.886867173732966],[-77.20634131540348,17.70111623785982],[-78.21772661000388,18.454532782459196]]],[[[-67.10067908391774,18.52060110114435],[-65.59100379094295,18.228034979723915],[-67.18416236028527,17.946553453030077],[-67.10067908391774,18.52060110114435]]],[[[-73.18979061551762,19.915683905511912],[-68.68931596543452,18.205142320218613],[-71.4002099270339,17.5985643579766],[-74.45803361682478,18.342549953682706],[-72.334881557897,18.668421535715254],[-73.18979061551762,19.915683905511912]]],[[[-80.6187686835812,23.105980129483],[-74.29664811877726,20.05037852628068],[-77.75548092315307,19.855480861891877],[-77.08510840524674,20.413353786698792],[-78.71986650258401,21.598113511638434],[-81.79500179719267,22.636964830001958],[-84.97491105827311,21.89602814380109],[-80.6187686835812,23.105980129483]]],[[[-77.89,25.17],[-77.54,24.34],[-77.78,23.710000000000004],[-78.40848,24.575640000000003],[-77.89,25.17]]],[[[-77.0,26.59],[-77.34,26.53],[-77.79,27.040000000000003],[-77.0,26.59]]],[[[-77.85000000000001,26.84],[-78.91000000000001,26.42],[-78.98,26.790000000000003],[-77.85000000000001,26.84]]],[[[-64.14280000000001,46.39265],[-63.6645,46.55001],[-62.012080000000005,46.44314],[-62.87433,45.968180000000004],[-64.14280000000001,46.39265]]],[[[-53.47654944519137,49.24913890237404],[-53.069158291218386,46.65549876564492],[-54.24048214376214,47.752279364607645],[-55.40077307801157,46.884993801453135],[-59.419494188053676,47.899453843774886],[-55.87097693543532,51.63209422464921],[-56.795881720595276,49.81230866149089],[-53.47654944519137,49.24913890237404]]],[[[-64.17322,49.95718],[-61.806304999999995,49.10506000000001],[-64.51912,49.87304],[-64.17322,49.95718]]],[[[-6.733847011736145,55.17286001242378],[-5.661948614921968,54.55460317648381],[-6.788856573910849,52.260117906292336],[-9.977085740590269,51.82045482035308],[-9.688524542672454,53.8813626165853],[-6.733847011736145,55.17286001242378]]],[[[-21.778484259517683,64.40211579045551],[-24.326184047939336,65.61118927678847],[-14.508695441129234,66.45589223903143],[-13.60973222497981,65.12667104761987],[-18.656245896874992,63.49638296167582],[-22.762971971110158,63.960178941495386],[-21.778484259517683,64.40211579045551]]],[[[-75.21597,67.44425],[-76.98687,67.09873],[-77.2364,67.58809000000001],[-75.89521,68.28721],[-75.21597,67.44425]]],[[[-77.8246239895596,72.74961660429098],[-66.9690333726542,69.18608734809182],[-68.8051228502006,68.72019847276444],[-61.851981370680605,66.86212067327783],[-63.918444383384184,64.9986685248329],[-68.015016038674,66.26272573512439],[-64.66940629744968,63.392926744227495],[-65.01380388045888,62.67418508569598],[-68.7831862046927,63.74567007105183],[-66.16556820338015,61.93089712182582],[-74.83441891142263,64.6790756293238],[-78.5559488593542,64.57290639918013],[-73.95979529488268,65.45476471624094],[-72.65116716173942,67.28457550726391],[-73.31161780464572,68.06943716091287],[-78.95724219431673,70.16688019477543],[-88.68171322300148,70.4107412787608],[-90.20516028518205,72.23507436796079],[-88.40824154331287,73.53788890247121],[-85.82615108920098,73.80381582304518],[-86.56217851433412,73.15744700793844],[-85.77437130404454,72.53412588163387],[-82.31559017610101,73.7509508328106],[-80.74894161652443,72.06190664335072],[-77.8246239895596,72.74961660429098]]],[[[-20.84539,82.72668999999999],[-31.900000000000002,82.2],[-12.20855,81.29154],[-20.04624,80.17708],[-17.73035,80.12912],[-19.70499,78.75128000000001],[-18.47285,76.98565],[-21.679440000000003,76.62795],[-19.83407,76.09808],[-19.59896,75.24838],[-20.66818,75.15585],[-19.37281,74.29561000000001],[-23.56593,73.30663],[-22.29954,72.18409],[-24.79296,72.3302],[-21.753560000000004,70.66369],[-25.543409999999998,71.43093999999999],[-26.36276,70.22646],[-22.349020000000003,70.12946000000001],[-39.81222,65.45848],[-42.819379999999995,62.68233],[-43.3784,60.09772],[-48.26294000000001,60.858430000000006],[-51.63325,63.62691],[-53.96911,67.18899],[-50.87122,69.9291],[-54.68336,69.61003],[-54.35884,70.82131500000001],[-51.39014,70.56978],[-55.83468,71.65444000000001],[-54.71819000000001,72.58625],[-58.58516,75.51727],[-68.50438,76.06141000000001],[-71.40257,77.00857],[-66.76397,77.37595],[-73.297,78.04419],[-65.7107,79.39436],[-68.02298,80.11721],[-60.28249,82.03363000000002],[-44.523,81.6607],[-46.76379,82.62796],[-35.08787,83.64513000000001],[-20.84539,82.72668999999999]]],[[[-76.25140380859375,72.82638549804688],[-79.77583312988281,72.8029022216797],[-80.83388519287111,73.69318389892578],[-76.25140380859375,72.82638549804688]]],[[[-91.58702000000001,81.89429000000001],[-72.83153,83.23324000000001],[-61.85,82.62860000000002],[-71.18,79.8],[-76.90773,79.32309000000001],[-75.39345,78.52581],[-80.56125,76.17812],[-89.49068,76.47239],[-87.76739,77.17833],[-88.26,77.9],[-84.97634,77.53873],[-87.96191999999999,78.37181],[-85.09495,79.34543000000001],[-86.93179,80.25145],[-81.84823,80.46442],[-87.59895,80.51627],[-91.58702000000001,81.89429000000001]]],[[[-176.08467281807765,-84.09925912875838],[-158.07137956442492,-85.37391000766968],[-143.10771847860048,-85.04075204868394],[-153.58620113830017,-83.68868987419938],[-152.86151669005503,-82.04269215283858],[-156.83744971415953,-81.10212940869428],[-146.41774899619182,-80.33793832796204],[-155.32937639058574,-79.06426930126423],[-158.05176835837008,-78.02567555761794],[-158.365134243788,-76.889207458655],[-151.33378048399427,-77.39873708105284],[-146.10440894899006,-76.47775970474709],[-146.20230994996697,-75.38041066502922],[-144.9096239961858,-75.20403900161699],[-119.70255957093428,-74.47901865656195],[-113.9443314278551,-73.71482757582987],[-107.55934648316816,-75.18445363377845],[-100.1166999987633,-74.87093271906349],[-103.68128862182442,-72.61753021254418],[-96.33659481482897,-73.6168490602044],[-89.22695126011297,-72.55872243259591],[-76.2218794420271,-73.96954071059645],[-68.93591590033128,-73.00939259861343],[-67.13403622096206,-72.04924448663041],[-68.54420854355897,-69.717397155892],[-67.25154842799373,-66.87617523205245],[-63.00139441593262,-64.6423080318279],[-57.811142747617566,-63.27066048950462],[-62.02210018578546,-64.7990943274014],[-62.12007870141076,-66.19032562267466],[-65.66508195663334,-67.95388722749948],[-61.80666113956062,-70.71676767998451],[-60.827366909413456,-73.69524220799121],[-70.6007238430463,-76.63449432388842],[-77.24037024606764,-76.71288747167517],[-73.6561187405195,-77.90811167415393],[-77.92585812041932,-78.37841888444223],[-78.0237849596125,-79.18183318472825],[-58.22248714866089,-83.21843434034338],[-28.549802212018733,-80.33793832796204],[-29.685805223090995,-79.260226332515],[-35.63991207532831,-79.45613168733348],[-35.77700965019869,-78.33924814876502],[-17.5229817367142,-75.12569753026253],[-15.70149085129026,-74.49860402440066],[-16.4653201969964,-73.87161387140338],[-15.44685523117198,-73.1465418499161],[-6.868231573911146,-70.93231007907394],[-0.22863684732209322,-71.63774505629027],[7.742866245157813,-69.89376881930406],[10.817820672253333,-70.83433156344853],[13.422777947654367,-69.97216196709093],[27.09372643403725,-70.46205454521782],[33.87041873549657,-68.50258758557459],[38.649403517416886,-69.77620493584016],[54.533550245996025,-65.81804860444396],[61.42780643091936,-67.95388722749948],[68.89003828316288,-67.93430185966076],[69.67345299670745,-69.22755625419728],[67.81273969917413,-70.30526824964431],[69.06630659371024,-70.67754526787496],[67.94988895047663,-71.85328745537964],[69.86930667509387,-72.26478688571984],[73.86487674346921,-69.87418345146551],[87.98628869014021,-66.20991099051338],[95.78147179564019,-67.385653178018],[99.71818240763503,-67.24850392671544],[102.83241092327262,-65.56328379324515],[106.18156050010873,-66.93493133556836],[113.60467329310734,-65.87680470795993],[119.83292361865301,-67.26808929455399],[134.75738732313982,-66.20996266694567],[135.0707532085578,-65.30857065847846],[137.46027143773392,-66.95456837983926],[145.490427280865,-66.9153459677297],[148.83962853413368,-68.38502370211057],[171.20679039945753,-71.69650115980608],[169.2873209984083,-73.65601979588166],[163.56823856023425,-76.24258026138676],[164.74346398341606,-78.18251352962375],[166.99578128485734,-78.75074757910522],[161.7663847190811,-79.16224781688965],[159.78821089094833,-80.945394789553],[169.40478152900755,-83.82589080193435],[180.0,-84.71337999999997],[180.0,-90.0],[-179.99999999999994,-90.0],[-179.99999999999994,-84.71337999999997],[-176.08467281807765,-84.09925912875838]]],[[[12.431003859108756,37.61294993748375],[15.520376010813806,38.23115509699143],[15.099988234119422,36.6199872909954],[12.431003859108756,37.61294993748375]]],[[[8.159998406617689,40.95000722916376],[9.210011834356266,41.209991360024176],[9.669518670295616,39.17737641047178],[8.428302443077115,39.17184703221655],[8.159998406617689,40.95000722916376]]],[[[9.390000848028876,43.00998484961471],[9.229752231491773,41.380006822264455],[8.544212680707773,42.25651662858306],[9.390000848028876,43.00998484961471]]],[[[-2.945008510744344,53.98499970154671],[-5.586397670911197,55.31114614523682],[-5.786824713555291,57.81884837506465],[-3.0050048486352807,58.63500010846633],[-4.073828497728073,57.55302480735526],[-1.9592805647769183,57.68479970969952],[-3.1190030582711756,55.973793036515474],[1.6815307959146821,52.739520168664],[1.4498653499502439,51.28942780212191],[-5.776566941745273,50.15967763935686],[-3.414850633142123,51.42600861266925],[-5.267295701508942,51.991400458374585],[-2.945008510744344,53.98499970154671]]],[[[11.043543328504226,55.36486379660424],[12.370904168353292,56.111407375708794],[12.690006137755603,55.60999095318074],[12.089991082414684,54.80001455343792],[11.043543328504226,55.36486379660424]]],[[[15.91315,76.77045],[13.76259,77.38035],[14.669560000000002,77.73565],[10.44453,79.65239],[16.990850000000002,80.05086],[21.54383,78.95611],[15.91315,76.77045]]],[[[32.97982710137845,34.57186941175544],[32.946960890440806,35.3867033961337],[34.576473829900465,35.67159556735879],[32.97982710137845,34.57186941175544]]],[[[23.699980096133004,35.70500438083549],[26.16499759288766,35.00499542900977],[23.51497846852808,35.27999156345098],[23.699980096133004,35.70500438083549]]],[[[22.490320000000004,77.44493],[20.8119,78.25463],[24.724120000000003,77.85385],[22.490320000000004,77.44493]]],[[[17.368015170977458,80.31889618602698],[22.91925255706738,80.65714427359343],[27.407505730913446,80.05640574820042],[23.024465773213617,79.40001170522903],[17.368015170977458,80.31889618602698]]],[[[68.935,-48.62500000000001],[70.525,-49.065000000000005],[70.56,-49.255],[68.745,-49.775000000000006],[68.935,-48.62500000000001]]],[[[50.47653689962553,-15.226512139550543],[47.095761346226595,-24.941629733990453],[44.03972049334976,-24.988345228782308],[43.254187046081,-22.057413018484123],[44.37432539243966,-20.07236622485639],[44.4465173683514,-16.216219170804507],[47.70512983581236,-14.594302666891764],[49.194651320193316,-12.04055673589197],[50.47653689962553,-15.226512139550543]]],[[[115.70552697150106,-8.370806573116873],[108.27776329959633,-7.766657403192576],[105.36548628135552,-6.851416110871206],[106.05164594932702,-5.895918877794472],[110.75957563684585,-6.465186455921747],[115.70552697150106,-8.370806573116873]]],[[[105.8176550639094,-5.85235564537242],[101.39911339722507,-2.7997771134591645],[95.29302615761729,5.479820868344788],[97.4848820332771,5.246320909033955],[103.83839603069836,0.10454173420869493],[103.4376452982749,-0.7119458960029021],[106.10859337771265,-3.0617766251789647],[105.8176550639094,-5.85235564537242]]],[[[117.8118583517178,0.7842418481437078],[116.14808393764866,-4.012726332214022],[114.86480309454456,-4.106984144714396],[110.223846063276,-2.9340324845534553],[108.9526575053282,0.41537547444431766],[109.66326012577375,2.0064669864949565],[111.16885298059748,1.8506367049188128],[117.12962609260047,6.92805288332454],[119.18190392463997,5.407835598162207],[117.3132324565335,3.234428208830593],[118.99674726773816,0.9022191430660627],[117.8118583517178,0.7842418481437078]]],[[[80.14780073437964,9.824077663609557],[81.63732221876059,6.481775214051922],[80.34835696810441,5.968369859232155],[80.14780073437964,9.824077663609557]]],[[[110.33918786015147,18.678395087147592],[108.65520796105616,18.507681993071387],[108.62621748254044,19.367887885001906],[110.78655073450221,20.077534491450052],[110.33918786015147,18.678395087147592]]],[[[68.85221113472508,76.5448113064546],[58.47708214705335,74.30905630156285],[55.419335971910925,72.37126760526603],[57.535692579992315,70.72046397570212],[51.601894565645665,71.47475901965045],[55.631932814359686,75.08141225859718],[68.85221113472508,76.5448113064546]]],[[[105.07547000000002,78.30689],[99.43814,77.921],[102.08635,79.34641],[105.07547000000002,78.30689]]],[[[97.75794,78.75619999999999],[91.18107000000002,80.34146000000001],[95.94089500000001,81.2504],[100.186655,79.780135],[99.93976,78.88094],[97.75794,78.75619999999999]]],[[[51.522932977103665,80.69972565380193],[47.58611901224418,80.01018117951533],[44.84695804218114,80.58980988231714],[51.522932977103665,80.69972565380193]]],[[[172.0972270042787,-40.956104424809716],[174.24851688058942,-41.77000823340673],[173.08011274647015,-43.853343601253606],[171.45292524646362,-44.2425188128437],[170.61669721911653,-45.908928724959736],[166.67688602118417,-46.219917494492236],[172.0972270042787,-40.956104424809716]]],[[[146.04837772032033,-43.549744561538844],[144.7437545106797,-40.70397511165767],[148.289067824496,-40.87543751400211],[147.91405195535384,-43.211522312188535],[146.04837772032033,-43.549744561538844]]],[[[173.85226199777532,-39.14660247167748],[174.6970166364506,-37.38112883885792],[172.63600548735377,-34.52910654066943],[175.9584900251275,-37.55538176854612],[178.51709354076274,-37.6953732236248],[175.23956749908297,-41.68830779395328],[173.85226199777532,-39.14660247167748]]],[[[131.32633060112084,-31.49580331800104],[118.02497195848949,-35.0647327613747],[115.02680870977957,-34.19651702243893],[115.80164513556394,-32.205062351207005],[113.33895307826242,-26.116545098578484],[114.23285200404723,-26.29844614024588],[113.73655154831609,-22.47547535572538],[120.85622033089668,-19.683707777589206],[125.68579634003055,-14.23065561285385],[129.62147342337965,-14.969783623924522],[130.61779503796697,-12.536392103732489],[132.5752982931831,-12.114040622611007],[132.3572237489114,-11.128519382372696],[136.49247521377168,-11.857208754120398],[135.50018436090318,-14.997740573794424],[140.21524539607827,-17.710804945550066],[142.51526004452495,-10.668185723516686],[143.9220992372389,-14.548310642151996],[145.3747237489635,-14.98497649501833],[146.38747846901964,-18.958274021075887],[150.72726525289113,-22.402404880464665],[153.56946902894418,-28.11006682710208],[149.99728397033613,-37.42526051203518],[146.31792199115478,-39.03575652441141],[145.03221235573295,-37.89618783951102],[143.60997358619602,-38.8094654274053],[140.63857872941327,-38.019332777662555],[138.12074791885635,-35.61229623793939],[138.20756432510672,-34.38472258884593],[136.8294055523147,-35.26053476332861],[137.81032759007905,-32.90000701266812],[135.98904341038428,-34.89011809666046],[134.27390262261702,-32.61723357516699],[131.32633060112084,-31.49580331800104]]],[[[164.029605747736,-20.105645847252354],[165.02003624904205,-20.45999114347773],[167.1200114280869,-22.15999073658349],[165.47437544175222,-21.679606621998232],[164.029605747736,-20.105645847252354]]],[[[177.67087,-17.381140000000002],[178.55271,-18.15059],[177.38146,-18.16432],[177.67087,-17.381140000000002]]],[[[180.0,-16.067132663642447],[178.72505936299711,-17.01204167436804],[178.59683859511713,-16.639150000000004],[180.0,-16.067132663642447]]],[[[167.2168013857696,-15.89184620530842],[167.84487674384502,-16.46633310309717],[167.51518110582288,-16.59784962327999],[167.2168013857696,-15.89184620530842]]],[[[166.79315799384085,-15.668810723536687],[167.10771243720149,-14.933920179913954],[167.27002811103023,-15.740020847234888],[166.79315799384085,-15.668810723536687]]],[[[161.31979699121476,-10.204751478723168],[162.1190246930409,-10.48271900802115],[162.3986458681722,-10.826367282762106],[161.70003218001835,-10.820011081590211],[161.31979699121476,-10.204751478723168]]],[[[119.90030968636157,-9.361340427287502],[120.71560875863045,-10.239581394087885],[118.96780846565471,-9.557969252158074],[119.90030968636157,-9.361340427287502]]],[[[123.9800089865081,-9.290026950724716],[127.33592817597463,-8.397316582882603],[123.57998172413669,-10.359987481327956],[123.9800089865081,-9.290026950724716]]],[[[160.85222863183787,-9.872937106977048],[159.64000288313514,-9.639979750205278],[159.70294477766663,-9.242949720906815],[160.85222863183787,-9.872937106977048]]],[[[160.78825320866054,-8.917543226764892],[160.57999718652434,-8.32000864017396],[161.5293966005906,-9.784312025596485],[160.78825320866054,-8.917543226764892]]],[[[117.0837374207253,-8.45715789147659],[119.12650678922307,-8.705824883665088],[116.74014082241665,-9.032936700072646],[117.0837374207253,-8.45715789147659]]],[[[119.92439090380958,-8.81041798262384],[122.00736453663043,-8.460620212440148],[122.90353722543607,-8.094234307490765],[122.75698286345632,-8.649807631060696],[119.92439090380958,-8.81041798262384]]],[[[158.35997765526542,-7.320017998893917],[159.91740197167792,-8.53828989017483],[158.21114953026483,-7.421872246941199],[158.35997765526542,-7.320017998893917]]],[[[157.5384257346892,-7.347819919466943],[156.4913578635913,-6.765943291860452],[156.542827590154,-6.599338474151452],[157.5384257346892,-7.347819919466943]]],[[[147.19187381407494,-7.388024183790023],[150.6905749859639,-10.582712904505925],[147.913018426708,-10.13044076908745],[144.74416792213805,-7.630128269077446],[142.62843143124417,-9.326820570516524],[137.61447391169287,-8.41168263105974],[138.66862145401478,-7.320224704623087],[137.92783979711078,-5.393365573756],[133.66288048719787,-3.538853448097541],[132.98395551974727,-4.112978610860253],[131.98980431531618,-2.820551039240499],[133.69621178602614,-2.214541517753702],[130.5195581401801,-0.9377202286860893],[133.98554813042836,-0.7802104630604559],[135.45760298069467,-3.367752780779149],[138.3297274110447,-1.7026864559026933],[144.58397098203324,-3.861417738463416],[147.64807335834757,-6.0836593563108465],[147.19187381407494,-7.388024183790023]]],[[[134.49962527886788,-5.445042006047871],[134.7246244650667,-6.214400730009288],[134.21013390516885,-6.89523772545472],[134.11277550673094,-6.142467136259],[134.49962527886788,-5.445042006047871]]],[[[154.51411421123964,-5.139117526879986],[156.0199654482248,-6.540013929880381],[155.8800256695784,-6.819996840037753],[155.16699425681514,-6.535931491729322],[154.51411421123964,-5.139117526879986]]],[[[148.31893680236067,-5.747142429226166],[151.53786176982146,-4.167807305521933],[152.33874311748093,-4.312966403829805],[150.2411967307538,-6.317753594593028],[148.31893680236067,-5.747142429226166]]],[[[150.66204959533883,-2.741486097833935],[152.23998945537113,-3.24000864015364],[153.14003787659874,-4.4999834122940925],[152.82729210836828,-4.7664270971909914],[150.66204959533883,-2.741486097833935]]],[[[127.00065148326497,-3.129317722184446],[126.87492272349886,-3.7909827612495874],[125.98903364471926,-3.177273451351305],[127.00065148326497,-3.129317722184446]]],[[[127.89889122936235,-3.393435967628207],[130.47134402885177,-3.093764336767634],[130.83483605359282,-3.8584721818227763],[127.89889122936235,-3.393435967628207]]],[[[120.18308312386272,0.2372468123342344],[120.93590538949073,-1.408905938323393],[123.34056481332846,-0.6156727026431383],[121.50827355355551,-1.904482924002458],[123.17096276254655,-4.683693129091701],[122.62851525277875,-5.634591159694466],[120.97238895068878,-2.627642917494939],[120.43071658740537,-5.528241062037793],[119.36690555224489,-5.3798780249278195],[118.76776899625287,-2.801999200047718],[119.82599897672587,0.1542544620734816],[120.88577925016762,1.3092227237968501],[125.2405005229715,1.4198361271176054],[123.6855049988767,0.235593166500891],[120.18308312386272,0.2372468123342344]]],[[[128.3799988139997,-0.7800037573313005],[127.39949018769369,1.011721503092545],[127.93237755748748,2.1745962589565693],[128.63595218314134,0.2584858260061935],[128.3799988139997,-0.7800037573313005]]],[[[125.39651167206063,5.5810033227722755],[123.61021243702749,7.83352732994274],[121.91992801319256,7.192119452336015],[125.41211795461277,9.760334784377534],[126.2227144715431,9.286074327018866],[126.19677290253259,6.274294338400054],[125.83142052622907,7.293715318221842],[125.39651167206063,5.5810033227722755]]],[[[119.68967654833989,10.554291490109875],[117.17427453010066,8.367499904814679],[119.51149620979751,11.3696680770272],[119.68967654833989,10.554291490109875]]],[[[123.98243777882584,10.278778591345755],[122.38005496631942,9.713360907424217],[124.0779358257012,11.232725531453738],[123.98243777882584,10.278778591345755]]],[[[122.00261030485957,10.441016750526089],[121.88354780485909,11.891755072471994],[123.12021650603594,11.583660183147856],[122.00261030485957,10.441016750526089]]],[[[124.80181928924577,10.134678859899864],[124.26676150929569,12.557760931849671],[125.22711632700788,12.53572093347718],[125.78346479706221,11.046121934447783],[125.01188398651226,11.311454576050409],[124.80181928924577,10.134678859899864]]],[[[121.18012820850211,13.429697373910443],[121.26219038298159,12.205560207564403],[120.32343631396745,13.466413479053825],[121.18012820850211,13.429697373910443]]],[[[121.50506961475342,15.124813544164622],[124.0774190613783,12.536676947474575],[120.62863732308324,13.857655747935596],[119.88377322802819,16.363704331929995],[120.71586714079191,18.505227362537525],[122.24600630095429,18.478949896717097],[121.50506961475342,15.124813544164622]]],[[[121.49504438688878,25.295458889257386],[121.17563235889274,22.790857245367167],[120.74707970589623,21.970571397382113],[120.1061885926124,23.556262722258236],[121.49504438688878,25.295458889257386]]],[[[133.0148580262578,32.70456736910474],[132.92437259331473,34.06029857028204],[134.63842817600386,34.149233710256354],[134.2034159689709,33.20117788342964],[133.0148580262578,32.70456736910474]]],[[[135.1209827007454,33.849071153289],[135.0794348491827,34.596544908174806],[130.98614464734345,33.88576142021624],[132.00003624890996,33.149992377244544],[130.686317987186,31.029579169228246],[129.40846316947255,33.29605581311752],[132.61767296766243,35.433393052709405],[135.67753787652885,35.52713410088687],[136.72383060114242,37.304984239240326],[139.42640465714283,38.21596222589761],[139.88337934789985,40.56331248632368],[141.3689734234266,41.378559882160275],[141.88460086483497,39.180864569651476],[140.2532792502451,35.138113918593646],[135.1209827007454,33.849071153289]]],[[[139.81754357315998,42.563758856774385],[141.38054894426,43.38882477474644],[141.96764489152798,45.55148346616134],[145.32082523008307,44.38473297787541],[145.5431372418027,43.26208832455062],[143.18384972551723,41.9952147486992],[141.6114909201724,42.6787905950561],[139.955106235921,41.56955597591103],[139.81754357315998,42.563758856774385]]],[[[143.50527713437265,46.137907619809525],[142.09203006405454,45.966755276058834],[141.906925083585,46.80592886004656],[141.6825460145737,53.301966457728795],[142.65478641171302,54.36588084575389],[144.6541475770856,48.97639069273754],[143.1739278505172,49.306551418650315],[142.55866824765013,47.86157501890495],[143.50527713437265,46.137907619809525]]],[[[178.7253,71.0988],[180.00000000000006,71.51571433642829],[180.00000000000006,70.83219920854673],[178.7253,71.0988]]],[[[139.86312,73.36983000000001],[142.06207,73.85758],[143.60385,73.21244],[139.86312,73.36983000000001]]],[[[149.575925,74.68892],[146.11919,75.17298],[150.73167,75.08406],[149.575925,74.68892]]],[[[136.97439,75.26167000000001],[145.086285,75.562625],[138.95544,74.61148],[136.97439,75.26167000000001]]]]}}]}
